     2.11           N: GPS NAV DATA                         RINEX VERSION / TYPE
teqc  2019Feb25     CORS-ADM Account    20260426 13:45:02UTCPGM / RUN BY / DATE
Linux 2.4.21-27.ELsmp|Opteron|gcc|Linux 64|=+               COMMENT
     2.10           N: GPS NAV DATA                         COMMENT
rvacn.e(1404.07)                        2026-04-26T13:27 UTCCOMMENT
This file contains the validated broadcast navigation       COMMENT
messages from the following files:                          COMMENT
aaaa1160.26n, abmf116m.26n, abpo116m.26n, albh116m.26n,     COMMENT
alic116m.26n, areq116m.26n, aruc116m.26n, baie116m.26n,     COMMENT
bake116m.26n, brew116m.26n, brst116m.26n, brux116m.26n,     COMMENT
bshm116m.26n, bucu116m.26n, cebr116m.26n, cedu116m.26n,     COMMENT
chpi116m.26n, chum116m.26n, chur116m.26n, ckis116m.26n,     COMMENT
coco116m.26n, cro1116m.26n, darw116m.26n, dav1116m.26n,     COMMENT
dgar116m.26n, djig116m.26n, dlf1116m.26n, drao116m.26n,     COMMENT
dubo116m.26n, ebre116m.26n, fair116m.26n, falk116m.26n,     COMMENT
flin116m.26n, glps116m.26n, glsv116m.26n, gode116m.26n,     COMMENT
guam116m.26n, harb116m.26n, hers116m.26n, hob2116m.26n,     COMMENT
hofn116m.26n, holb116m.26n, hrao116m.26n, iisc116m.26n,     COMMENT
iqal116m.26n, ista116m.26n, joze116m.26n, jplm116m.26n,     COMMENT
karr116m.26n, kat1116m.26n, kiri116m.26n, kiru116m.26n,     COMMENT
kokb116m.26n, koug116m.26n, kour116m.26n, lmmf116m.26n,     COMMENT
lpal116m.26n, m0se116m.26n, mac1116m.26n, maju116m.26n,     COMMENT
mal2116m.26n, mar6116m.26n, mas1116m.26n, mat1116m.26n,     COMMENT
mate116m.26n, maw1116m.26n, mcm4116m.26n, mdo1116m.26n,     COMMENT
medi116m.26n, met3116m.26n, mkea116m.26n, mobs116m.26n,     COMMENT
mro1116m.26n, nain116m.26n, nano116m.26n, naur116m.26n,     COMMENT
nico116m.26n, nklg116m.26n, nlib116m.26n, nnor116m.26n,     COMMENT
not1116m.26n, nrc1116m.26n, onsa116m.26n, orid116m.26n,     COMMENT
palm116m.26n, pert116m.26n, picl116m.26n, pie1116m.26n,     COMMENT
pimo116m.26n, pohn116m.26n, prds116m.26n, ptvl116m.26n,     COMMENT
qaq1116m.26n, qiki116m.26n, reso116m.26n, reun116m.26n,     COMMENT
reyk116m.26n, riga116m.26n, sant116m.26n, sask116m.26n,     COMMENT
sch2116m.26n, scor116m.26n, solo116m.26n, stj3116m.26n,     COMMENT
stjo116m.26n, stpm116m.26n, suth116m.26n, suwn116m.26n,     COMMENT
sydn116m.26n, thtg116m.26n, thu2116m.26n, tid1116m.26n,     COMMENT
tow2116m.26n, tuva116m.26n, unbj116m.26n, usud116m.26n,     COMMENT
vacs116m.26n, vald116m.26n, vill116m.26n, vis0116m.26n,     COMMENT
warn116m.26n, whit116m.26n, will116m.26n, wsrt116m.26n,     COMMENT
wtzr116m.26n, xmis116m.26n, yar2116m.26n, yarr116m.26n,     COMMENT
yebe116m.26n, yell116m.26n, zim2116m.26n, zimm116m.26n      COMMENT
    2.2350D-08  1.4900D-08 -1.1920D-07 -5.9600D-08          ION ALPHA
    1.2490D+05  6.5540D+04 -1.9660D+05  6.5540D+04          ION BETA
   -1.862645149230D-09-7.105427357600D-15   147456     2416 DELTA-UTC: A0,A1,T,W
                                                            END OF HEADER
14 26  4 26 10  0  0.0 7.445234805346D-04 1.250555214938D-12 0.000000000000D+00
    7.500000000000D+01 5.946875000000D+01 5.104141179396D-09 2.730941573101D+00
    3.090128302574D-06 7.011753390543D-03 8.618459105492D-06 5.153658992767D+03
    3.600000000000D+04-7.078051567078D-08-1.856627077684D-02-6.891787052155D-08
    9.426975974703D-01 2.052500000000D+02-2.721047362202D+00-8.214985044244D-09
    3.371569010811D-10 1.000000000000D+00 2.416000000000D+03 0.000000000000D+00
    2.000000000000D+00 0.000000000000D+00-8.381903171539D-09 8.430000000000D+02
    2.881800000000D+04 4.000000000000D+00
15 26  4 26 10  0  0.0 4.064003005624D-04 3.296918293927D-12 0.000000000000D+00
    3.600000000000D+01-2.140625000000D+01 5.297720671331D-09-9.032646055336D-01
   -8.102506399155D-07 1.669851841871D-02 3.969296813011D-06 5.153715948105D+03
    3.600000000000D+04-2.179294824600D-07-2.299591222908D+00 2.216547727585D-07
    9.432957042124D-01 2.976250000000D+02 1.511114636607D+00-8.909299679521D-09
    1.753644474903D-10 1.000000000000D+00 2.416000000000D+03 0.000000000000D+00
    2.000000000000D+00 0.000000000000D+00-1.117587089539D-08 3.600000000000D+01
    2.881800000000D+04 4.000000000000D+00
17 26  4 26 10  0  0.0-1.216540113091D-04-8.640199666843D-12 0.000000000000D+00
    1.100000000000D+01-2.625000000000D+00 4.987350600314D-09 6.169041715064D-02
   -1.732259988785D-07 1.258551294450D-02 5.520880222321D-06 5.153619319916D+03
    3.600000000000D+04-9.313225746155D-08 1.070202501704D+00-1.061707735062D-07
    9.583807141865D-01 2.755937500000D+02-1.112970401193D+00-8.593215084758D-09
   -3.335853237391D-10 1.000000000000D+00 2.416000000000D+03 0.000000000000D+00
    2.000000000000D+00 0.000000000000D+00-1.117587089539D-08 1.100000000000D+01
    2.881800000000D+04 4.000000000000D+00
18 26  4 26 10  0  0.0-3.673690371215D-04 9.322320693173D-12 0.000000000000D+00
    1.190000000000D+02-1.340625000000D+01 3.989451890970D-09-1.919014617724D+00
   -7.245689630508D-07 5.891858832911D-03 1.022405922413D-05 5.153631113052D+03
    3.600000000000D+04-8.568167686462D-08 2.081812054891D+00-5.029141902924D-08
    9.712780311143D-01 1.883750000000D+02-2.873723435327D+00-7.743536835105D-09
   -2.396528396456D-10 1.000000000000D+00 2.416000000000D+03 0.000000000000D+00
    2.000000000000D+00 0.000000000000D+00-8.381903171539D-09 1.190000000000D+02
    2.881800000000D+04 4.000000000000D+00
19 26  4 26 10  0  0.0 6.981729529798D-04 1.023181539495D-12 0.000000000000D+00
    5.800000000000D+01-8.125000000000D-01 4.962349558920D-09 1.810358225052D+00
    1.359730958939D-07 1.139768783469D-02 5.312263965607D-06 5.153731592178D+03
    3.600000000000D+04 1.117587089539D-07 1.114065278342D+00 2.048909664154D-07
    9.575213390529D-01 2.755000000000D+02 2.960124136343D+00-8.375706024632D-09
   -5.257361847366D-10 1.000000000000D+00 2.416000000000D+03 0.000000000000D+00
    2.000000000000D+00 0.000000000000D+00-1.536682248116D-08 5.800000000000D+01
    2.881800000000D+04 4.000000000000D+00
20 26  4 26 10  0  0.0 1.266086474061D-04 1.818989403546D-11 0.000000000000D+00
    1.490000000000D+02-4.753125000000D+01 4.806628786811D-09 2.748364274964D+00
   -2.468004822731D-06 2.114186994731D-03 3.965571522713D-06 5.153596084595D+03
    3.600000000000D+04 3.352761268616D-08-2.148884797814D+00 7.450580596924D-09
    9.606176870911D-01 3.032812500000D+02-1.878819821438D+00-8.378563286506D-09
    2.500104139373D-12 1.000000000000D+00 2.416000000000D+03 0.000000000000D+00
    2.000000000000D+00 0.000000000000D+00-8.847564458847D-09 9.170000000000D+02
    2.881800000000D+04 4.000000000000D+00
21 26  4 26 10  0  0.0 4.149624146521D-04 2.273736754432D-13 0.000000000000D+00
    7.500000000000D+01 5.971875000000D+01 4.409826544119D-09 2.412265281629D+00
    3.082677721977D-06 8.565410971642D-04 7.143244147301D-06 5.153795490265D+03
    3.600000000000D+04 3.911554813385D-08 3.128942375249D+00-6.705522537231D-08
    9.636983672766D-01 2.441250000000D+02-1.659110432495D-01-8.155339702633D-09
    3.568005764619D-10 1.000000000000D+00 2.416000000000D+03 0.000000000000D+00
    2.000000000000D+00 0.000000000000D+00-9.778887033463D-09 3.310000000000D+02
    3.029400000000D+04 4.000000000000D+00
22 26  4 26 10  0  0.0-1.244433224201D-05 6.252776074689D-12 0.000000000000D+00
    8.400000000000D+01 5.368750000000D+01 4.942348725805D-09 7.112344210142D-01
    2.700835466385D-06 1.196996530052D-02 8.052214980125D-06 5.153724586487D+03
    3.600000000000D+04-1.117587089539D-08 5.714769371083D-02-2.179294824600D-07
    9.579286944437D-01 2.255937500000D+02-9.950767107449D-01-8.377848971038D-09
    3.278707999920D-10 1.000000000000D+00 2.416000000000D+03 0.000000000000D+00
    2.000000000000D+00 0.000000000000D+00-1.117587089539D-08 8.400000000000D+01
    2.881800000000D+04 4.000000000000D+00
23 26  4 26 10  0  0.0 6.405785679817D-04 4.320099833421D-12 0.000000000000D+00
    9.100000000000D+01 5.062500000000D+01 3.706940123221D-09-3.091769025596D+00
    2.704560756683D-06 6.136217969470D-03 8.190050721169D-06 5.153710008621D+03
    3.600000000000D+04-6.146728992462D-08 3.089493946601D+00-5.587935447693D-08
    9.887854856729D-01 2.357500000000D+02-2.740232941792D+00-7.677105496545D-09
    3.985880313628D-10 1.000000000000D+00 2.416000000000D+03 0.000000000000D+00
    2.000000000000D+00 0.000000000000D+00-8.847564458847D-09 3.470000000000D+02
    2.881800000000D+04 4.000000000000D+00
24 26  4 26 10  0  0.0-1.811329275370D-05 1.796252036002D-11 0.000000000000D+00
    6.000000000000D+01-7.009375000000D+01 5.027709424278D-09-1.725803012748D+00
   -3.514811396599D-06 1.802943262737D-02 9.659677743912D-06 5.153646867752D+03
    3.600000000000D+04 3.967434167862D-07-1.190498365081D+00 2.793967723846D-08
    9.348141733226D-01 1.719375000000D+02 1.142604189982D+00-8.081050893921D-09
   -2.250093725435D-11 1.000000000000D+00 2.416000000000D+03 0.000000000000D+00
    2.000000000000D+00 0.000000000000D+00 2.328306436539D-09 6.000000000000D+01
    2.881800000000D+04 4.000000000000D+00
25 26  4 26 10  0  0.0 4.272460937500D-04-2.842170943040D-12 0.000000000000D+00
    5.100000000000D+01 5.356250000000D+01 4.891632327550D-09 2.757645139903D+00
    2.618879079819D-06 1.287085970398D-02 8.819624781609D-06 5.153702930450D+03
    3.600000000000D+04 3.539025783539D-08-5.748010088264D-02-2.495944499969D-07
    9.477361374943D-01 1.974687500000D+02 1.159807796456D+00-7.980332412877D-09
    2.746542975968D-10 1.000000000000D+00 2.416000000000D+03 0.000000000000D+00
    2.000000000000D+00 0.000000000000D+00 5.587935447693D-09 5.100000000000D+01
    2.881800000000D+04 4.000000000000D+00
